NORAD_CAT_ID,OBJECT_NAME,OBJECT_TYPE,EPOCH,MEAN_MOTION,ECCENTRICITY,INCLINATION,RA_OF_ASC_NODE,ARG_OF_PERICENTER,MEAN_ANOMALY,BSTAR,MEAN_MOTION_DOT,MEAN_MOTION_DDOT,TLE_LINE0,TLE_LINE1,TLE_LINE2,SEMIMAJOR_AXIS,PERIOD,APOGEE,PERIGEE,DECAYED
55782.0,STARLINK-5826,PAYLOAD,2023-04-01 11:41:26,15.6993553,0.0003549,70.0006,74.4156,273.605,86.474,5.8795e-05,6.866e-05,0.0,0 STARLINK-5826,1 55782U 23028AT  23091.48710909  .00006866  00000-0  58795-4 0  9999,2 55782  70.0006  74.4156 0003549 273.6050  86.4740 15.69935530  5182,6737.218,91.724,361.474,356.692,0.0
55782.0,STARLINK-5826,PAYLOAD,2023-04-02 01:27:12,15.69932281,0.0002961,70.0014,72.8032,276.9559,83.1299,0.0001083,0.00012833,0.0,0 STARLINK-5826,1 55782U 23028AT  23092.06056094  .00012833  00000-0  10830-3 0  9990,2 55782  70.0014  72.8032 0002961 276.9559  83.1299 15.69932281  5276,6737.228,91.724,361.088,357.098,0.0
55782.0,STARLINK-5826,PAYLOAD,2023-04-02 10:37:43,15.69931241,0.0002702,70.0015,71.729,286.397,73.6929,5.8018e-05,6.771e-05,0.0,0 STARLINK-5826,1 55782U 23028AT  23092.44286091  .00006771  00000-0  58018-4 0  9999,2 55782  70.0015  71.7290 0002702 286.3970  73.6929 15.69931241  5332,6737.231,91.724,360.916,357.275,0.0
55782.0,STARLINK-5826,PAYLOAD,2023-04-03 04:58:44,15.69928937,0.0003398,70.0017,69.5798,265.788,94.2927,3.4186e-05,3.901e-05,0.0,0 STARLINK-5826,1 55782U 23028AT  23093.20746028  .00003901  00000-0  34186-4 0  9997,2 55782  70.0017  69.5798 0003398 265.7880  94.2927 15.69928937  5453,6737.237,91.724,361.392,356.813,0.0
55782.0,STARLINK-5826,PAYLOAD,2023-04-03 08:02:14,15.699294,0.0003267,70.0001,69.2211,265.9484,94.1338,2.9134e-05,3.292e-05,0.0,0 STARLINK-5826,1 55782U 23028AT  23093.33489245  .00003292  00000-0  29134-4 0  9996,2 55782  70.0001  69.2211 0003267 265.9484  94.1338 15.69929400  5473,6737.236,91.724,361.302,356.9,0.0
55782.0,STARLINK-5826,PAYLOAD,2023-04-03 21:48:00,15.69930049,0.000318,70.0007,67.6085,266.1041,93.9791,3.9545e-05,4.546e-05,0.0,0 STARLINK-5826,1 55782U 23028AT  23093.90834428  .00004546  00000-0  39545-4 0  9996,2 55782  70.0007  67.6085 0003180 266.1041  93.9791 15.69930049  5567,6737.234,91.724,361.242,356.957,0.0
55782.0,STARLINK-5826,PAYLOAD,2023-04-04 08:30:16,15.69943402,0.0003258,70.0017,66.3557,263.4755,96.607,8.1468e-05,9.602e-05,0.0,0 STARLINK-5826,1 55782U 23028AT  23094.35435703  .00009602  00000-0  81468-4 0  9998,2 55782  70.0017  66.3557 0003258 263.4755  96.6070 15.69943402  5631,6737.196,91.723,361.256,356.866,0.0
55782.0,STARLINK-5826,PAYLOAD,2023-04-05 01:19:33,15.69919828,0.000308,70.0009,64.3842,258.9424,101.1426,4.5023e-06,3.29e-06,0.0,0 STARLINK-5826,1 55782U 23028AT  23095.05524846  .00000329  00000-0  45023-5 0  9998,2 55782  70.0009  64.3842 0003080 258.9424 101.1426 15.69919828  5746,6737.263,91.724,361.203,357.053,0.0
55782.0,STARLINK-5826,PAYLOAD,2023-04-05 07:26:33,15.69931707,0.0002702,70.002,63.6683,244.2013,115.8904,3.6174e-05,4.14e-05,0.0,0 STARLINK-5826,1 55782U 23028AT  23095.31011239  .00004140  00000-0  36174-4 0  9995,2 55782  70.0020  63.6683 0002702 244.2013 115.8904 15.69931707  5783,6737.229,91.724,360.915,357.274,0.0
55782.0,STARLINK-5826,PAYLOAD,2023-04-05 10:30:03,15.69938205,0.0002972,70.0006,63.3081,256.6523,103.4342,8.278e-05,9.758e-05,0.0,0 STARLINK-5826,1 55782U 23028AT  23095.43754408  .00009758  00000-0  82780-4 0  9994,2 55782  70.0006  63.3081 0002972 256.6523 103.4342 15.69938205  5800,6737.211,91.723,361.078,357.073,0.0
55782.0,STARLINK-5826,PAYLOAD,2023-04-06 00:15:50,15.69925533,0.0003415,70.0023,61.697,266.1696,93.911,5.2984e-05,6.163e-05,0.0,0 STARLINK-5826,1 55782U 23028AT  23096.01099708  .00006163  00000-0  52984-4 0  9994,2 55782  70.0023  61.6970 0003415 266.1696  93.9110 15.69925533  5892,6737.247,91.724,361.413,356.811,0.0
55782.0,STARLINK-5826,PAYLOAD,2023-04-06 07:54:35,15.69932353,0.0003142,70.0005,60.7986,260.211,99.8731,5.6394e-05,6.576e-05,0.0,0 STARLINK-5826,1 55782U 23028AT  23096.32957852  .00006576  00000-0  56394-4 0  9998,2 55782  70.0005  60.7986 0003142 260.2110  99.8731 15.69932353  5940,6737.228,91.724,361.209,356.976,0.0
55782.0,STARLINK-5826,PAYLOAD,2023-04-06 21:40:21,15.69925651,0.0002791,70.0009,59.1866,262.2254,97.8624,3.0003e-05,3.397e-05,0.0,0 STARLINK-5826,1 55782U 23028AT  23096.90303093  .00003397  00000-0  30003-4 0  9991,2 55782  70.0009  59.1866 0002791 262.2254  97.8624 15.69925651  6036,6737.247,91.724,360.992,357.231,0.0
55782.0,STARLINK-5826,PAYLOAD,2023-04-07 00:43:52,15.6992802,0.0002866,70.0007,58.8277,259.1138,100.9736,1.6666e-05,1.792e-05,0.0,0 STARLINK-5826,1 55782U 23028AT  23097.03046328  .00001792  00000-0  16666-4 0  9997,2 55782  70.0007  58.8277 0002866 259.1138 100.9736 15.69928020  6050,6737.24,91.724,361.036,357.174,0.0
55782.0,STARLINK-5826,PAYLOAD,2023-04-07 06:50:52,15.6992892,0.0002885,70.0008,58.1117,266.4491,93.6375,1.9989e-05,2.192e-05,0.0,0 STARLINK-5826,1 55782U 23028AT  23097.28532950  .00002192  00000-0  19989-4 0  9991,2 55782  70.0008  58.1117 0002885 266.4491  93.6375 15.69928920  6091,6737.237,91.724,361.046,357.159,0.0
55782.0,STARLINK-5826,PAYLOAD,2023-04-07 23:40:08,15.69925048,0.0002927,70.001,56.1406,263.6181,96.4681,1.2079e-05,1.24e-05,0.0,0 STARLINK-5826,1 55782U 23028AT  23097.98621504  .00001240  00000-0  12079-4 0  9998,2 55782  70.0010  56.1406 0002927 263.6181  96.4681 15.69925048  6207,6737.248,91.724,361.085,357.141,0.0
55782.0,STARLINK-5826,PAYLOAD,2023-04-08 07:18:54,15.69924567,0.0003292,70.0011,55.2456,261.5579,98.5243,1.0338e-05,1.031e-05,0.0,0 STARLINK-5826,1 55782U 23028AT  23098.30479881  .00001031  00000-0  10338-4 0  9998,2 55782  70.0011  55.2456 0003292 261.5579  98.5243 15.69924567  6254,6737.25,91.724,361.333,356.897,0.0
55782.0,STARLINK-5826,PAYLOAD,2023-04-09 03:11:42,15.69893114,0.0003407,70.0005,52.9182,267.3874,92.6931,-5.3514e-05,-6.634e-05,0.0,0 STARLINK-5826,1 55782U 23028AT  23099.13313333 -.00006634  00000-0 -53514-4 0  9998,2 55782  70.0005  52.9182 0003407 267.3874  92.6931 15.69893114  6383,6737.34,91.726,361.5,356.909,0.0
55782.0,STARLINK-5826,PAYLOAD,2023-04-09 06:15:13,15.69892223,0.0003668,70.0005,52.5606,268.1149,91.9626,-5.2535e-05,-6.517e-05,0.0,0 STARLINK-5826,1 55782U 23028AT  23099.26056900 -.00006517  00000-0 -52535-4 0  9998,2 55782  70.0005  52.5606 0003668 268.1149  91.9626 15.69892223  6409,6737.342,91.726,361.679,356.736,0.0
55782.0,STARLINK-5826,PAYLOAD,2023-04-09 23:04:27,15.69937134,0.0003267,70.0,50.5906,265.2526,94.8296,2.6867e-05,3.021e-05,0.0,0 STARLINK-5826,1 55782U 23028AT  23099.96143134  .00003021  00000-0  26867-4 0  9995,2 55782  70.0000  50.5906 0003267 265.2526  94.8296 15.69937134  6515,6737.214,91.723,361.28,356.878,0.0
55782.0,STARLINK-5826,PAYLOAD,2023-04-10 08:14:58,15.69921799,0.0003644,69.9999,49.5156,265.7597,94.3183,6.9146e-06,6.19e-06,0.0,0 STARLINK-5826,1 55782U 23028AT  23100.34373820  .00000619  00000-0  69146-5 0  9995,2 55782  69.9999  49.5156 0003644 265.7597  94.3183 15.69921799  6572,6737.258,91.724,361.578,356.668,0.0
55782.0,STARLINK-5826,PAYLOAD,2023-04-11 07:11:18,15.69883937,0.0003696,69.9992,46.8296,278.9817,81.0961,7.0932e-06,6.39e-06,0.0,0 STARLINK-5826,1 55782U 23028AT  23101.29951876  .00000639  00000-0  70932-5 0  9990,2 55782  69.9992  46.8296 0003696 278.9817  81.0961 15.69883937  6723,6737.366,91.727,361.721,356.741,0.0
55782.0,STARLINK-5826,PAYLOAD,2023-04-11 19:25:18,15.69930993,0.0003758,70.0001,45.3983,275.1883,84.8884,-4.6819e-05,-5.841e-05,0.0,0 STARLINK-5826,1 55782U 23028AT  23101.80923817 -.00005841  00000-0 -46819-4 0  9999,2 55782  70.0001  45.3983 0003758 275.1883  84.8884 15.69930993  6804,6737.231,91.724,361.628,356.565,0.0
55782.0,STARLINK-5826,PAYLOAD,2023-04-12 00:00:31,15.69951877,0.0002465,70.0015,44.8587,249.6068,110.4863,-1.466e-05,-1.976e-05,0.0,0 STARLINK-5826,1 55782U 23028AT  23102.00036750 -.00001976  00000-0 -14660-4 0  9997,2 55782  70.0015  44.8587 0002465 249.6068 110.4863 15.69951877  6838,6737.172,91.723,360.697,357.376,0.0
55782.0,STARLINK-5826,PAYLOAD,2023-04-12 13:46:18,15.699222,0.0003529,69.9999,43.2464,269.3538,90.7253,1.3364e-05,1.394e-05,0.0,0 STARLINK-5826,1 55782U 23028AT  23102.57382339  .00001394  00000-0  13364-4 0  9998,2 55782  69.9999  43.2464 0003529 269.3538  90.7253 15.69922200  6927,6737.257,91.724,361.499,356.744,0.0
55782.0,STARLINK-5826,PAYLOAD,2023-04-13 06:35:35,15.69910345,0.000252,70.0006,41.2763,295.7036,64.3899,4.1037e-05,4.721e-05,0.0,0 STARLINK-5826,1 55782U 23028AT  23103.27471541  .00004721  00000-0  41037-4 0  9995,2 55782  70.0006  41.2763 0002520 295.7036  64.3899 15.69910345  7038,6737.291,91.725,360.853,357.458,0.0
55782.0,STARLINK-5826,PAYLOAD,2023-04-14 07:03:35,15.6995303,0.0003232,70.0011,38.4092,259.75,100.3331,6.3285e-06,5.49e-06,0.0,0 STARLINK-5826,1 55782U 23028AT  23104.29415705  .00000549  00000-0  63285-5 0  9992,2 55782  70.0011  38.4092 0003232 259.7500 100.3331 15.69953030  7191,6737.168,91.722,361.211,356.856,0.0
55782.0,STARLINK-5826,PAYLOAD,2023-04-15 02:56:22,15.69932338,0.0003335,70.0013,36.081,265.7474,94.334,5.0765e-06,3.98e-06,0.0,0 STARLINK-5826,1 55782U 23028AT  23105.12248377  .00000398  00000-0  50765-5 0  9995,2 55782  70.0013  36.0810 0003335 265.7474  94.3340 15.69932338  7321,6737.228,91.724,361.339,356.846,0.0
55782.0,STARLINK-5826,PAYLOAD,2023-04-15 05:59:52,15.69932824,0.0003539,70.0004,35.7221,267.6582,92.4209,9.704e-06,9.55e-06,0.0,0 STARLINK-5826,1 55782U 23028AT  23105.24991637  .00000955  00000-0  97040-5 0  9998,2 55782  70.0004  35.7221 0003539 267.6582  92.4209 15.69932824  7345,6737.226,91.724,361.475,356.707,0.0
55782.0,STARLINK-5826,PAYLOAD,2023-04-15 21:17:24,15.69921562,0.0003171,70.0013,33.93,268.7063,91.377,-8.9804e-06,-1.292e-05,0.0,0 STARLINK-5826,1 55782U 23028AT  23105.88709418 -.00001292  00000-0 -89804-5 0  9998,2 55782  70.0013  33.9300 0003171 268.7063  91.3770 15.69921562  7440,6737.258,91.724,361.26,356.987,0.0
